line1,line2,validFromUtcTime
1 00000U 00000E   26001.00000000  .00000000  00000-0  27772-4 0    01,2 00000  88.8601  75.3325 0010077 270.1722  37.3674 13.55295302    09,2026-01-01T00:00:00Z
1 00000U 00000E   26002.00000000  .00000000  00000-0  27772-4 0    02,2 00000  88.8601  75.2165 0010077 267.2625 236.4290 13.55295341    08,2026-01-02T00:00:00Z
